IRIDIUM 7               
1 24793U 97020B   25101.69684488  .00000897  00000+0  30292-3 0  9997
2 24793  86.4023 204.7373 0002050  88.4892 271.6540 14.35878878462356
IRIDIUM 5               
1 24795U 97020D   25101.86926514  .00009721  00000+0  81279-3 0  9993
2 24795  86.3842 114.3111 0111087  17.8950 342.6140 14.93604643475567
IRIDIUM 4               
1 24796U 97020E   25101.72209556  .00000733  00000+0  24186-3 0  9997
2 24796  86.4022 201.6512 0002242  92.4049 267.7404 14.36785638462921
IRIDIUM 914             
1 24836U 97030A   25101.84116231  .00001087  00000+0  33378-3 0  9999
2 24836  86.3990 210.3959 0003751  87.9529 272.2100 14.40799363597578
IRIDIUM 16              
1 24841U 97030F   25101.91037408  .00001085  00000+0  34802-3 0  9992
2 24841  86.4043 233.0953 0000397 346.2964  13.8223 14.38641258457472
IRIDIUM 911             
1 24842U 97030G   25101.75739898  .00001489  00000+0  39946-3 0  9999
2 24842  86.4470 231.9989 0012806 326.2150  33.8236 14.47539302465477
IRIDIUM 17              
1 24870U 97034B   25101.85665705  .00001092  00000+0  35657-3 0  9995
2 24870  86.3910 262.6473 0001326 143.7738 216.3550 14.37747800454056
IRIDIUM 920             
1 24871U 97034C   25101.65332509  .00001138  00000+0  34493-3 0  9995
2 24871  86.3962 242.0981 0009751 307.4269  52.6042 14.41455578456993
