<?xml version="1.0" encoding="UTF-8"?>
<ndm xmlns:xsi="http://www.w3.org/2001/XMLSchema-instance" xsi:noNamespaceSchemaLocation="https://sanaregistry.org/r/ndmxml_unqualified/ndmxml-2.0.0-master-2.0.xsd">
<omm id="CCSDS_OMM_VERS" version="2.0">
<header><CREATION_DATE/><ORIGINATOR/></header><body><segment><metadata><OBJECT_NAME>IRIDIUM 7</OBJECT_NAME><OBJECT_ID>1997-020B</OBJECT_ID><CENTER_NAME>EARTH</CENTER_NAME><REF_FRAME>TEME</REF_FRAME><TIME_SYSTEM>UTC</TIME_SYSTEM><MEAN_ELEMENT_THEORY>SGP4</MEAN_ELEMENT_THEORY></metadata><data><meanElements><EPOCH>2025-04-11T16:43:27.397632</EPOCH><MEAN_MOTION>14.35878878</MEAN_MOTION><ECCENTRICITY>.000205</ECCENTRICITY><INCLINATION>86.4023</INCLINATION><RA_OF_ASC_NODE>204.7373</RA_OF_ASC_NODE><ARG_OF_PERICENTER>88.4892</ARG_OF_PERICENTER><MEAN_ANOMALY>271.6540</MEAN_ANOMALY></meanElements><tleParameters><EPHEMERIS_TYPE>0</EPHEMERIS_TYPE><CLASSIFICATION_TYPE>U</CLASSIFICATION_TYPE><NORAD_CAT_ID>24793</NORAD_CAT_ID><ELEMENT_SET_NO>999</ELEMENT_SET_NO><REV_AT_EPOCH>46235</REV_AT_EPOCH><BSTAR>.30292E-3</BSTAR><MEAN_MOTION_DOT>.897E-5</MEAN_MOTION_DOT><MEAN_MOTION_DDOT>0</MEAN_MOTION_DDOT></tleParameters></data></segment></body></omm>
<omm id="CCSDS_OMM_VERS" version="2.0">
<header><CREATION_DATE/><ORIGINATOR/></header><body><segment><metadata><OBJECT_NAME>IRIDIUM 5</OBJECT_NAME><OBJECT_ID>1997-020D</OBJECT_ID><CENTER_NAME>EARTH</CENTER_NAME><REF_FRAME>TEME</REF_FRAME><TIME_SYSTEM>UTC</TIME_SYSTEM><MEAN_ELEMENT_THEORY>SGP4</MEAN_ELEMENT_THEORY></metadata><data><meanElements><EPOCH>2025-04-11T20:51:44.508096</EPOCH><MEAN_MOTION>14.93604643</MEAN_MOTION><ECCENTRICITY>.0111087</ECCENTRICITY><INCLINATION>86.3842</INCLINATION><RA_OF_ASC_NODE>114.3111</RA_OF_ASC_NODE><ARG_OF_PERICENTER>17.8950</ARG_OF_PERICENTER><MEAN_ANOMALY>342.6140</MEAN_ANOMALY></meanElements><tleParameters><EPHEMERIS_TYPE>0</EPHEMERIS_TYPE><CLASSIFICATION_TYPE>U</CLASSIFICATION_TYPE><NORAD_CAT_ID>24795</NORAD_CAT_ID><ELEMENT_SET_NO>999</ELEMENT_SET_NO><REV_AT_EPOCH>47556</REV_AT_EPOCH><BSTAR>.81279E-3</BSTAR><MEAN_MOTION_DOT>.9721E-4</MEAN_MOTION_DOT><MEAN_MOTION_DDOT>0</MEAN_MOTION_DDOT></tleParameters></data></segment></body></omm>
<omm id="CCSDS_OMM_VERS" version="2.0">
<header><CREATION_DATE/><ORIGINATOR/></header><body><segment><metadata><OBJECT_NAME>IRIDIUM 4</OBJECT_NAME><OBJECT_ID>1997-020E</OBJECT_ID><CENTER_NAME>EARTH</CENTER_NAME><REF_FRAME>TEME</REF_FRAME><TIME_SYSTEM>UTC</TIME_SYSTEM><MEAN_ELEMENT_THEORY>SGP4</MEAN_ELEMENT_THEORY></metadata><data><meanElements><EPOCH>2025-04-11T17:19:49.056384</EPOCH><MEAN_MOTION>14.36785638</MEAN_MOTION><ECCENTRICITY>.0002242</ECCENTRICITY><INCLINATION>86.4022</INCLINATION><RA_OF_ASC_NODE>201.6512</RA_OF_ASC_NODE><ARG_OF_PERICENTER>92.4049</ARG_OF_PERICENTER><MEAN_ANOMALY>267.7404</MEAN_ANOMALY></meanElements><tleParameters><EPHEMERIS_TYPE>0</EPHEMERIS_TYPE><CLASSIFICATION_TYPE>U</CLASSIFICATION_TYPE><NORAD_CAT_ID>24796</NORAD_CAT_ID><ELEMENT_SET_NO>999</ELEMENT_SET_NO><REV_AT_EPOCH>46292</REV_AT_EPOCH><BSTAR>.24186E-3</BSTAR><MEAN_MOTION_DOT>.733E-5</MEAN_MOTION_DOT><MEAN_MOTION_DDOT>0</MEAN_MOTION_DDOT></tleParameters></data></segment></body></omm>
<omm id="CCSDS_OMM_VERS" version="2.0">
<header><CREATION_DATE/><ORIGINATOR/></header><body><segment><metadata><OBJECT_NAME>IRIDIUM 914</OBJECT_NAME><OBJECT_ID>1997-030A</OBJECT_ID><CENTER_NAME>EARTH</CENTER_NAME><REF_FRAME>TEME</REF_FRAME><TIME_SYSTEM>UTC</TIME_SYSTEM><MEAN_ELEMENT_THEORY>SGP4</MEAN_ELEMENT_THEORY></metadata><data><meanElements><EPOCH>2025-04-11T20:11:16.423584</EPOCH><MEAN_MOTION>14.40799363</MEAN_MOTION><ECCENTRICITY>.0003751</ECCENTRICITY><INCLINATION>86.3990</INCLINATION><RA_OF_ASC_NODE>210.3959</RA_OF_ASC_NODE><ARG_OF_PERICENTER>87.9529</ARG_OF_PERICENTER><MEAN_ANOMALY>272.2100</MEAN_ANOMALY></meanElements><tleParameters><EPHEMERIS_TYPE>0</EPHEMERIS_TYPE><CLASSIFICATION_TYPE>U</CLASSIFICATION_TYPE><NORAD_CAT_ID>24836</NORAD_CAT_ID><ELEMENT_SET_NO>999</ELEMENT_SET_NO><REV_AT_EPOCH>59757</REV_AT_EPOCH><BSTAR>.33378E-3</BSTAR><MEAN_MOTION_DOT>.1087E-4</MEAN_MOTION_DOT><MEAN_MOTION_DDOT>0</MEAN_MOTION_DDOT></tleParameters></data></segment></body></omm>
<omm id="CCSDS_OMM_VERS" version="2.0">
<header><CREATION_DATE/><ORIGINATOR/></header><body><segment><metadata><OBJECT_NAME>IRIDIUM 16</OBJECT_NAME><OBJECT_ID>1997-030F</OBJECT_ID><CENTER_NAME>EARTH</CENTER_NAME><REF_FRAME>TEME</REF_FRAME><TIME_SYSTEM>UTC</TIME_SYSTEM><MEAN_ELEMENT_THEORY>SGP4</MEAN_ELEMENT_THEORY></metadata><data><meanElements><EPOCH>2025-04-11T21:50:56.320512</EPOCH><MEAN_MOTION>14.38641258</MEAN_MOTION><ECCENTRICITY>.0000397</ECCENTRICITY><INCLINATION>86.4043</INCLINATION><RA_OF_ASC_NODE>233.0953</RA_OF_ASC_NODE><ARG_OF_PERICENTER>346.2964</ARG_OF_PERICENTER><MEAN_ANOMALY>13.8223</MEAN_ANOMALY></meanElements><tleParameters><EPHEMERIS_TYPE>0</EPHEMERIS_TYPE><CLASSIFICATION_TYPE>U</CLASSIFICATION_TYPE><NORAD_CAT_ID>24841</NORAD_CAT_ID><ELEMENT_SET_NO>999</ELEMENT_SET_NO><REV_AT_EPOCH>45747</REV_AT_EPOCH><BSTAR>.34802E-3</BSTAR><MEAN_MOTION_DOT>.1085E-4</MEAN_MOTION_DOT><MEAN_MOTION_DDOT>0</MEAN_MOTION_DDOT></tleParameters></data></segment></body></omm>
<omm id="CCSDS_OMM_VERS" version="2.0">
<header><CREATION_DATE/><ORIGINATOR/></header><body><segment><metadata><OBJECT_NAME>IRIDIUM 911</OBJECT_NAME><OBJECT_ID>1997-030G</OBJECT_ID><CENTER_NAME>EARTH</CENTER_NAME><REF_FRAME>TEME</REF_FRAME><TIME_SYSTEM>UTC</TIME_SYSTEM><MEAN_ELEMENT_THEORY>SGP4</MEAN_ELEMENT_THEORY></metadata><data><meanElements><EPOCH>2025-04-11T18:10:39.271872</EPOCH><MEAN_MOTION>14.47539302</MEAN_MOTION><ECCENTRICITY>.0012806</ECCENTRICITY><INCLINATION>86.4470</INCLINATION><RA_OF_ASC_NODE>231.9989</RA_OF_ASC_NODE><ARG_OF_PERICENTER>326.2150</ARG_OF_PERICENTER><MEAN_ANOMALY>33.8236</MEAN_ANOMALY></meanElements><tleParameters><EPHEMERIS_TYPE>0</EPHEMERIS_TYPE><CLASSIFICATION_TYPE>U</CLASSIFICATION_TYPE><NORAD_CAT_ID>24842</NORAD_CAT_ID><ELEMENT_SET_NO>999</ELEMENT_SET_NO><REV_AT_EPOCH>46547</REV_AT_EPOCH><BSTAR>.39946E-3</BSTAR><MEAN_MOTION_DOT>.1489E-4</MEAN_MOTION_DOT><MEAN_MOTION_DDOT>0</MEAN_MOTION_DDOT></tleParameters></data></segment></body></omm>
<omm id="CCSDS_OMM_VERS" version="2.0">
<header><CREATION_DATE/><ORIGINATOR/></header><body><segment><metadata><OBJECT_NAME>IRIDIUM 17</OBJECT_NAME><OBJECT_ID>1997-034B</OBJECT_ID><CENTER_NAME>EARTH</CENTER_NAME><REF_FRAME>TEME</REF_FRAME><TIME_SYSTEM>UTC</TIME_SYSTEM><MEAN_ELEMENT_THEORY>SGP4</MEAN_ELEMENT_THEORY></metadata><data><meanElements><EPOCH>2025-04-11T20:33:35.169120</EPOCH><MEAN_MOTION>14.37747800</MEAN_MOTION><ECCENTRICITY>.0001326</ECCENTRICITY><INCLINATION>86.3910</INCLINATION><RA_OF_ASC_NODE>262.6473</RA_OF_ASC_NODE><ARG_OF_PERICENTER>143.7738</ARG_OF_PERICENTER><MEAN_ANOMALY>216.3550</MEAN_ANOMALY></meanElements><tleParameters><EPHEMERIS_TYPE>0</EPHEMERIS_TYPE><CLASSIFICATION_TYPE>U</CLASSIFICATION_TYPE><NORAD_CAT_ID>24870</NORAD_CAT_ID><ELEMENT_SET_NO>999</ELEMENT_SET_NO><REV_AT_EPOCH>45405</REV_AT_EPOCH><BSTAR>.35657E-3</BSTAR><MEAN_MOTION_DOT>.1092E-4</MEAN_MOTION_DOT><MEAN_MOTION_DDOT>0</MEAN_MOTION_DDOT></tleParameters></data></segment></body></omm>
<omm id="CCSDS_OMM_VERS" version="2.0">
<header><CREATION_DATE/><ORIGINATOR/></header><body><segment><metadata><OBJECT_NAME>IRIDIUM 920</OBJECT_NAME><OBJECT_ID>1997-034C</OBJECT_ID><CENTER_NAME>EARTH</CENTER_NAME><REF_FRAME>TEME</REF_FRAME><TIME_SYSTEM>UTC</TIME_SYSTEM><MEAN_ELEMENT_THEORY>SGP4</MEAN_ELEMENT_THEORY></metadata><data><meanElements><EPOCH>2025-04-11T15:40:47.287776</EPOCH><MEAN_MOTION>14.41455578</MEAN_MOTION><ECCENTRICITY>.0009751</ECCENTRICITY><INCLINATION>86.3962</INCLINATION><RA_OF_ASC_NODE>242.0981</RA_OF_ASC_NODE><ARG_OF_PERICENTER>307.4269</ARG_OF_PERICENTER><MEAN_ANOMALY>52.6042</MEAN_ANOMALY></meanElements><tleParameters><EPHEMERIS_TYPE>0</EPHEMERIS_TYPE><CLASSIFICATION_TYPE>U</CLASSIFICATION_TYPE><NORAD_CAT_ID>24871</NORAD_CAT_ID><ELEMENT_SET_NO>999</ELEMENT_SET_NO><REV_AT_EPOCH>45699</REV_AT_EPOCH><BSTAR>.34493E-3</BSTAR><MEAN_MOTION_DOT>.1138E-4</MEAN_MOTION_DOT><MEAN_MOTION_DDOT>0</MEAN_MOTION_DDOT></tleParameters></data></segment></body></omm>

</ndm>
